[{"OBJECT_NAME":"STARLINK-3145","OBJECT_ID":"2021-104AZ","EPOCH":"2026-03-09T17:27:41.999616","MEAN_MOTION":15.08837908,"ECCENTRICITY":0.00011945,"INCLINATION":53.2173,"RA_OF_ASC_NODE":218.9527,"ARG_OF_PERICENTER":93.792,"MEAN_ANOMALY":266.3209,"EPHEMERIS_TYPE":0,"CLASSIFICATION_TYPE":"U","NORAD_CAT_ID":49455,"ELEMENT_SET_NO":999,"REV_AT_EPOCH":23878,"BSTAR":6.8063315e-5,"MEAN_MOTION_DOT":7.95e-6,"MEAN_MOTION_DDOT":0},{"OBJECT_NAME":"XSS-10","OBJECT_ID":"2003-005B","EPOCH":"2026-03-09T22:36:04.304736","MEAN_MOTION":14.89771195,"ECCENTRICITY":0.01472532,"INCLINATION":39.7452,"RA_OF_ASC_NODE":284.3199,"ARG_OF_PERICENTER":105.9853,"MEAN_ANOMALY":255.7209,"EPHEMERIS_TYPE":0,"CLASSIFICATION_TYPE":"U","NORAD_CAT_ID":27664,"ELEMENT_SET_NO":999,"REV_AT_EPOCH":24782,"BSTAR":0.00036723179,"MEAN_MOTION_DOT":4.24e-5,"MEAN_MOTION_DDOT":0}]
